[{"OBJECT_NAME":"IRIDIUM 181","OBJECT_ID":"2023-068S","EPOCH":"2026-03-09T14:51:01.796256","MEAN_MOTION":14.43307145,"ECCENTRICITY":0.0002603,"INCLINATION":86.4454,"RA_OF_ASC_NODE":98.4288,"ARG_OF_PERICENTER":96.8881,"MEAN_ANOMALY":263.2616,"EPHEMERIS_TYPE":0,"CLASSIFICATION_TYPE":"U","NORAD_CAT_ID":56726,"ELEMENT_SET_NO":999,"REV_AT_EPOCH":14807,"BSTAR":1.6704e-5,"MEAN_MOTION_DOT":7.6e-7,"MEAN_MOTION_DDOT":0},{"OBJECT_NAME":"CBERS 1 DEB","OBJECT_ID":"1999-057QT","EPOCH":"2026-02-27T07:21:25.308288","MEAN_MOTION":14.45077531,"ECCENTRICITY":0.00047362,"INCLINATION":98.7546,"RA_OF_ASC_NODE":85.4261,"ARG_OF_PERICENTER":212.9191,"MEAN_ANOMALY":147.1705,"EPHEMERIS_TYPE":0,"CLASSIFICATION_TYPE":"U","NORAD_CAT_ID":32079,"ELEMENT_SET_NO":999,"REV_AT_EPOCH":98158,"BSTAR":0.00032018765,"MEAN_MOTION_DOT":1.072e-5,"MEAN_MOTION_DDOT":0}]
